#aV2020  5 26  0  0  0.00000000     288 DD+AD WGS84 FIT  NGA
## 2107 172800.00000000   300.00000000 58995 0.0000000000000
+   32     1  2  3  4  5  6  7  8  9 10 11 12 13 14 15 16 17
+         18 19 20 21 22 23 24 25 26 27 28 29 30 31 32  0  0
+          0  0  0  0  0  0  0  0  0  0  0  0  0  0  0  0  0
+          0  0  0  0  0  0  0  0  0  0  0  0  0  0  0  0  0
+          0  0  0  0  0  0  0  0  0  0  0  0  0  0  0  0  0
++         2  2  2  2  2  2  2  2  2  2  2  2  2  2  2  2  2
++         2  2  2  2  2  2  2  2  2  2  2  2  2  2  2  0  0
++         0  0  0  0  0  0  0  0  0  0  0  0  0  0  0  0  0
++         0  0  0  0  0  0  0  0  0  0  0  0  0  0  0  0  0
++         0  0  0  0  0  0  0  0  0  0  0  0  0  0  0  0  0
%c cc cc ccc ccc cccc cccc cccc cccc ccccc ccccc ccccc ccccc
%c cc cc ccc ccc cccc cccc cccc cccc ccccc ccccc ccccc ccccc
%f  0.0000000  0.000000000  0.00000000000  0.000000000000000
%f  0.0000000  0.000000000  0.00000000000  0.000000000000000
%i    0    0    0    0      0      0      0      0         0
%i    0    0    0    0      0      0      0      0         0
/*      NGA, ST. LOUIS,MO.                                  
/*   EPHEMERIS COMPUTED FROM 2 DAYS OF DATA                 
/*   EPOCHA v5 SMOOTHER                                     
/*   G1762 IERS2010 SATAF SATAPC                            
*  2020  5 26  2 45  0.00000000
P  1 -13739.490162  21532.380886  -6821.936053   -385.199905                    
V  1  -7436.122634   4601.493367  30821.842564     -0.044375                    
P  2  20117.132829 -10753.896807 -12920.794823   -461.871521                    
V  2  -8906.865349  15249.216877 -25375.424798     -0.061039                    
P  3  -7394.395393  13664.075519 -21588.503969   -187.765621                    
V  3 -26529.814213  -6336.935227   5192.453556     -0.125757                    
P  4  -1901.811667  23706.317199 -11781.071610    -94.176452                    
V  4  -6402.080374 -13774.204629 -26683.229814     -0.049248                    
P  5  24428.923958  -2777.908630  10163.367328    -13.380406                    
V  5  12350.105702   4965.216528 -27754.170794     -0.007429                    
P  6  17291.421755   1039.265115 -20092.344744   -278.021368                    
V  6 -16571.270611  19489.740433 -13173.383275     -0.065231                    
P  7   2180.621481  17991.572038  19554.917358   -289.590427                    
V  7 -17752.734741  16751.305659 -14133.094564     -0.087113                    
P  8  -9233.810985  15100.949730  19732.797757    -35.283357                    
V  8  -9103.073447 -23407.071726  13911.082022     -0.013154                    
P  9   7393.897874  25461.249422  -1478.906669   -224.334212                    
V  9  -3515.019388   -748.944576 -31502.183394     -0.071629                    
P 10 -21877.643721 -11732.723087   9852.227433   -352.161322                    
V 10  12485.003706    477.890852  28318.252702     -0.114211                    
P 11 -12197.670791  22440.196585   7352.563832   -266.913764                    
V 11  -1046.531459 -10647.781404  28526.914031      0.106842                    
P 12   8807.598051 -12710.259227 -21811.800596    113.634422                    
V 12  25867.286435   8103.143894   5939.241878     -0.044337                    
P 13  13801.384811  -6885.111009  21495.393771     12.985168                    
V 13   5391.513977  27035.148299   5260.454151      0.031151                    
P 14 -15763.723822  -9297.781003 -18964.876859    -10.439251                    
V 14  -4248.435189 -24436.585700  15050.184806      0.026314                    
P 15   7994.960498 -16625.631144  18662.355310   -228.685166                    
V 15  11732.324308  21717.513631  14463.708009      0.026071                    
P 16 -23763.864635   1009.178212  12055.251458   -162.619766                    
V 16 -14253.797670  -6202.680158 -26655.761532     -0.045657                    
P 17  13740.856433  18164.883354 -13280.412441    270.634161                    
V 17   2618.516551  17399.816565  25654.499864      0.060550                    
P 18   -945.857151 -18282.361907  19228.301878    201.162162                    
V 18  17855.066396 -16724.847816 -15035.408654      0.115756                    
P 19  15311.827151  10613.495758 -19240.741262   -153.846417                    
V 19   3831.782404  23441.866326  16212.615595      0.050838                    
P 20 -12688.097081 -14585.659322  18225.111652    527.629806                    
V 20  23384.878205    141.147333  16103.742555     -0.000530                    
P 21  -6800.008089 -15622.153157  21215.372725      3.390022                    
V 21  16188.118108 -19270.594570  -9063.151813      0.048791                    
P 22 -16542.664134  10904.835515 -17411.446134   -780.942637                    
V 22 -22187.444414  -5221.476439  17735.398797      0.015449                    
P 23  10135.955039  24250.834896   2354.480344   -111.170238                    
V 23  -2631.810575   3624.916957 -31417.758512      0.031355                    
P 24  13644.669858 -22144.034327  -4493.061041    -13.482752                    
V 24   6433.362823  -1930.772222  30746.587393     -0.004832                    
P 25  -2452.011879 -15775.365160 -21504.795528      7.159633                    
V 25  26147.931391   5353.667621  -6727.388939      0.032726                    
P 26 -26288.244995  -4547.183375    414.778890    213.369300                    
V 26      0.202605  -3123.763230 -31291.211893      0.071097                    
P 27 -14388.177423   3481.453231  21917.524764   -303.562733                    
V 27  -8570.901074 -26775.064681  -1038.224185     -0.100792                    
P 28  21368.355921  13193.684259   8993.572354    714.255600                    
V 28 -10759.329508  -1252.548313  29447.759872     -0.032228                    
P 29  -3070.559023 -25951.748779  -4710.764297   -112.950679                    
V 29   3338.322137   5277.768577 -31569.246673     -0.088125                    
P 30  11935.627826  10248.530883  21445.453609   -228.043998                    
V 30 -19007.158766  19477.092730   1058.587786     -0.080568                    
P 31 -18708.230039     93.477072 -19062.386788    -44.851930                    
V 31  15808.686076 -18066.044219 -15189.447244     -0.025161                    
P 32 -15611.282158 -16468.183668 -13839.596065    287.798286                    
V 32  -3360.198711 -17483.581857  24300.899266      0.073927                    
EOF
